CTC2_L_00173016-03
1 10062U 23669FI  26075.70042824  .00000000  00000+0  00000-0 0  9991
2 10062  85.0000 180.0000 0000000   0.0000   0.0000 14.89338871    16
CTC2_L_00173016-04
1 10063U 24872VA  26075.70042824  .00000000  00000+0  00000-0 0  9999
2 10063  85.0000 180.0000 0000000   0.0000  90.0000 14.89338871    16
CTC2_L_00173017-01
1 10064U 25337XA  26075.70042824  .00000000  00000+0  00000-0 0  9997
2 10064  85.0000 192.0000 0000000   0.0000 192.0000 14.89338871    13
CTC2_L_00173017-02
1 10065U 26197WG  26075.70042824  .00000000  00000+0  00000-0 0  9993
2 10065  85.0000 192.0000 0000000   0.0000 282.0000 14.89338871    14
CTC2_L_00173017-03
1 10066U 26060OC  26075.70042824  .00000000  00000+0  00000-0 0  9993
2 10066  85.0000 192.0000 0000000   0.0000  12.0000 14.89338871    16
CTC2_L_00173017-04
1 10067U 22043CW  26075.70042824  .00000000  00000+0  00000-0 0  9991
2 10067  85.0000 192.0000 0000000   0.0000 102.0000 14.89338871    17
CTC2_L_00173018-01
1 10068U 25544WF  26075.70042824  .00000000  00000+0  00000-0 0  9991
2 10068  85.0000 204.0000 0000000   0.0000 204.0000 14.89338871    15
CTC2_L_00173018-02
1 10069U 22257VJ  26075.70042824  .00000000  00000+0  00000-0 0  9990
2 10069  85.0000 204.0000 0000000   0.0000 294.0000 14.89338871    15
CTC2_L_00173018-03
1 10070U 23929TA  26075.70042824  .00000000  00000+0  00000-0 0  9999
2 10070  85.0000 204.0000 0000000   0.0000  24.0000 14.89338871    18
CTC2_L_00173018-04
1 10071U 22576MT  26075.70042824  .00000000  00000+0  00000-0 0  9997
2 10071  85.0000 204.0000 0000000   0.0000 114.0000 14.89338871    19
CTC2_L_00173019-01
1 10072U 26274RT  26075.70042824  .00000000  00000+0  00000-0 0  9997
2 10072  85.0000 216.0000 0000000   0.0000 216.0000 14.89338871    16
CTC2_L_00173019-02
1 10073U 24054JP  26075.70042824  .00000000  00000+0  00000-0 0  9992
2 10073  85.0000 216.0000 0000000   0.0000 306.0000 14.89338871    17
CTC2_L_00173019-03
1 10074U 24476IY  26075.70042824  .00000000  00000+0  00000-0 0  9991
2 10074  85.0000 216.0000 0000000   0.0000  36.0000 14.89338871    18
CTC2_L_00173019-04
1 10075U 23170SX  26075.70042824  .00000000  00000+0  00000-0 0  9992
2 10075  85.0000 216.0000 0000000   0.0000 126.0000 14.89338871    19
CTC2_L_00173020-01
1 10076U 23112OF  26075.70042824  .00000000  00000+0  00000-0 0  9999
2 10076  85.0000 228.0000 0000000   0.0000 228.0000 14.89338871    16
CTC2_L_00173020-02
1 10077U 24602UG  26075.70042824  .00000000  00000+0  00000-0 0  9995
2 10077  85.0000 228.0000 0000000   0.0000 318.0000 14.89338871    17
CTC2_L_00173020-03
1 10078U 24170ZQ  26075.70042824  .00000000  00000+0  00000-0 0  9996
2 10078  85.0000 228.0000 0000000   0.0000  48.0000 14.89338871    18
CTC2_L_00173020-04
1 10079U 24353NE  26075.70042824  .00000000  00000+0  00000-0 0  9990
2 10079  85.0000 228.0000 0000000   0.0000 138.0000 14.89338871    19
CTC2_L_00173021-01
1 10080U 23673VJ  26075.70042824  .00000000  00000+0  00000-0 0  9996
2 10080  85.0000 240.0000 0000000   0.0000 240.0000 14.89338871    19
CTC2_L_00173021-02
1 10081U 25290CP  26075.70042824  .00000000  00000+0  00000-0 0  9994
2 10081  85.0000 240.0000 0000000   0.0000 330.0000 14.89338871    10
CTC2_L_00173021-03
1 10082U 23029PO  26075.70042824  .00000000  00000+0  00000-0 0  9993
2 10082  85.0000 240.0000 0000000   0.0000  60.0000 14.89338871    11
CTC2_L_00173021-04
1 10083U 22379RB  26075.70042824  .00000000  00000+0  00000-0 0  9991
2 10083  85.0000 240.0000 0000000   0.0000 150.0000 14.89338871    12
CTC2_L_00173022-01
1 10084U 26791FE  26075.70042824  .00000000  00000+0  00000-0 0  9994
2 10084  85.0000 252.0000 0000000   0.0000 252.0000 14.89338871    19
CTC2_L_00173022-02
1 10085U 23882YU  26075.70042824  .00000000  00000+0  00000-0 0  9993
2 10085  85.0000 252.0000 0000000   0.0000 342.0000 14.89338871    10
CTC2_L_00173022-03
1 10086U 22009MX  26075.70042824  .00000000  00000+0  00000-0 0  9994
2 10086  85.0000 252.0000 0000000   0.0000  72.0000 14.89338871    11
CTC2_L_00173022-04
1 10087U 23694PO  26075.70042824  .00000000  00000+0  00000-0 0  9996
2 10087  85.0000 252.0000 0000000   0.0000 162.0000 14.89338871    12
CTC2_L_00173023-01
1 10088U 23543EX  26075.70042824  .00000000  00000+0  00000-0 0  9990
2 10088  85.0000 264.0000 0000000   0.0000 264.0000 14.89338871    19
CTC2_L_00173023-02
1 10089U 25139JJ  26075.70042824  .00000000  00000+0  00000-0 0  9994
2 10089  85.0000 264.0000 0000000   0.0000 354.0000 14.89338871    10
CTC2_L_00173023-03
1 10090U 26319WJ  26075.70042824  .00000000  00000+0  00000-0 0  9997
2 10090  85.0000 264.0000 0000000   0.0000  84.0000 14.89338871    12
CTC2_L_00173023-04
1 10091U 25793CD  26075.70042824  .00000000  00000+0  00000-0 0  9993
2 10091  85.0000 264.0000 0000000   0.0000 174.0000 14.89338871    13
CTC2_L_00173024-01
1 10092U 24713BP  26075.70042824  .00000000  00000+0  00000-0 0  9995
2 10092  85.0000 276.0000 0000000   0.0000 276.0000 14.89338871    10
CTC2_L_00173024-02
1 10093U 22647TN  26075.70042824  .00000000  00000+0  00000-0 0  9990
2 10093  85.0000 276.0000 0000000   0.0000   6.0000 14.89338871    12
CTC2_L_00173024-03
1 10094U 26891QC  26075.70042824  .00000000  00000+0  00000-0 0  9996
2 10094  85.0000 276.0000 0000000   0.0000  96.0000 14.89338871    12
CTC2_L_00173024-04
1 10095U 26075PP  26075.70042824  .00000000  00000+0  00000-0 0  9991
2 10095  85.0000 276.0000 0000000   0.0000 186.0000 14.89338871    13
CTC2_L_00173025-01
1 10096U 25985EE  26075.70042824  .00000000  00000+0  00000-0 0  9991
2 10096  85.0000 288.0000 0000000   0.0000 288.0000 14.89338871    10
CTC2_L_00173025-02
1 10097U 24682LG  26075.70042824  .00000000  00000+0  00000-0 0  9995
2 10097  85.0000 288.0000 0000000   0.0000  18.0000 14.89338871    12
CTC2_L_00173025-03
1 10098U 23706NK  26075.70042824  .00000000  00000+0  00000-0 0  9992
2 10098  85.0000 288.0000 0000000   0.0000 108.0000 14.89338871    13
CTC2_L_00173025-04
1 10099U 25667EH  26075.70042824  .00000000  00000+0  00000-0 0  9991
2 10099  85.0000 288.0000 0000000   0.0000 198.0000 14.89338871    13
CTC2_L_00173026-01
1 10100U 24181OG  26075.70042824  .00000000  00000+0  00000-0 0  9994
2 10100  85.0000 300.0000 0000000   0.0000 300.0000 14.89338871    16
CTC2_L_00173026-02
1 10101U 24501MG  26075.70042824  .00000000  00000+0  00000-0 0  9991
2 10101  85.0000 300.0000 0000000   0.0000  30.0000 14.89338871    17
CTC2_L_00173026-03
1 10102U 22748BN  26075.70042824  .00000000  00000+0  00000-0 0  9993
2 10102  85.0000 300.0000 0000000   0.0000 120.0000 14.89338871    18
CTC2_L_00173026-04
1 10103U 22548GK  26075.70042824  .00000000  00000+0  00000-0 0  9992
2 10103  85.0000 300.0000 0000000   0.0000 210.0000 14.89338871    19
CTC2_L_00173027-01
1 10104U 24538IT  26075.70042824  .00000000  00000+0  00000-0 0  9994
2 10104  85.0000 312.0000 0000000   0.0000 312.0000 14.89338871    16
CTC2_L_00173027-02
1 10105U 25813JK  26075.70042824  .00000000  00000+0  00000-0 0  9992
2 10105  85.0000 312.0000 0000000   0.0000  42.0000 14.89338871    17
CTC2_L_00173027-03
1 10106U 22238KH  26075.70042824  .00000000  00000+0  00000-0 0  9991
2 10106  85.0000 312.0000 0000000   0.0000 132.0000 14.89338871    18
CTC2_L_00173027-04
1 10107U 26849KE  26075.70042824  .00000000  00000+0  00000-0 0  9994
2 10107  85.0000 312.0000 0000000   0.0000 222.0000 14.89338871    19
CTC2_L_00173028-01
1 10108U 23901PC  26075.70042824  .00000000  00000+0  00000-0 0  9991
2 10108  85.0000 324.0000 0000000   0.0000 324.0000 14.89338871    16
CTC2_L_00173028-02
1 10109U 26463NF  26075.70042824  .00000000  00000+0  00000-0 0  9998
2 10109  85.0000 324.0000 0000000   0.0000  54.0000 14.89338871    17
CTC2_L_00173028-03
1 10110U 22609DT  26075.70042824  .00000000  00000+0  00000-0 0  9998
2 10110  85.0000 324.0000 0000000   0.0000 144.0000 14.89338871    19
CTC2_L_00173028-04
1 10111U 22655BZ  26075.70042824  .00000000  00000+0  00000-0 0  9990
2 10111  85.0000 324.0000 0000000   0.0000 234.0000 14.89338871    10
CTC2_L_00173029-01
1 10112U 22313JP  26075.70042824  .00000000  00000+0  00000-0 0  9992
2 10112  85.0000 336.0000 0000000   0.0000 336.0000 14.89338871    17
CTC2_L_00173029-02
1 10113U 22676DH  26075.70042824  .00000000  00000+0  00000-0 0  9995
2 10113  85.0000 336.0000 0000000   0.0000  66.0000 14.89338871    18
CTC2_L_00173029-03
1 10114U 24276JH  26075.70042824  .00000000  00000+0  00000-0 0  9994
2 10114  85.0000 336.0000 0000000   0.0000 156.0000 14.89338871    19
CTC2_L_00173029-04
1 10115U 22905DI  26075.70042824  .00000000  00000+0  00000-0 0  9992
2 10115  85.0000 336.0000 0000000   0.0000 246.0000 14.89338871    10
CTC2_L_00173030-01
1 10116U 25868PC  26075.70042824  .00000000  00000+0  00000-0 0  9994
2 10116  85.0000 348.0000 0000000   0.0000 348.0000 14.89338871    17
CTC2_L_00173030-02
1 10117U 22897QG  26075.70042824  .00000000  00000+0  00000-0 0  9994
2 10117  85.0000 348.0000 0000000   0.0000  78.0000 14.89338871    18
CTC2_L_00173030-03
1 10118U 26151GV  26075.70042824  .00000000  00000+0  00000-0 0  9992
2 10118  85.0000 348.0000 0000000   0.0000 168.0000 14.89338871    19
CTC2_L_00173030-04
1 10119U 25642XG  26075.70042824  .00000000  00000+0  00000-0 0  9997
2 10119  85.0000 348.0000 0000000   0.0000 258.0000 14.89338871    10
